[{"OBJECT_NAME":"ONEWEB-0012","OBJECT_ID":"2019-010A","EPOCH":"2026-03-23T03:34:01.106688","MEAN_MOTION":13.16594888,"ECCENTRICITY":0.000152,"INCLINATION":87.9018,"RA_OF_ASC_NODE":245.8899,"ARG_OF_PERICENTER":110.5912,"MEAN_ANOMALY":249.5382,"EPHEMERIS_TYPE":0,"CLASSIFICATION_TYPE":"U","NORAD_CAT_ID":44057,"ELEMENT_SET_NO":999,"REV_AT_EPOCH":34024,"BSTAR":0.00021646705,"MEAN_MOTION_DOT":9.6e-7,"MEAN_MOTION_DDOT":0},{"OBJECT_NAME":"ONEWEB-0010","OBJECT_ID":"2019-010B","EPOCH":"2026-03-23T04:10:29.982432","MEAN_MOTION":13.16593942,"ECCENTRICITY":0.00021077,"INCLINATION":87.9021,"RA_OF_ASC_NODE":245.8802,"ARG_OF_PERICENTER":97.0097,"MEAN_ANOMALY":263.1274,"EPHEMERIS_TYPE":0,"CLASSIFICATION_TYPE":"U","NORAD_CAT_ID":44058,"ELEMENT_SET_NO":999,"REV_AT_EPOCH":34029,"BSTAR":-0.00029083295,"MEAN_MOTION_DOT":-9.8e-7,"MEAN_MOTION_DDOT":0},{"OBJECT_NAME":"ONEWEB-0008","OBJECT_ID":"2019-010C","EPOCH":"2026-03-23T04:46:58.724256","MEAN_MOTION":13.16593967,"ECCENTRICITY":0.00015718,"INCLINATION":87.9017,"RA_OF_ASC_NODE":245.8723,"ARG_OF_PERICENTER":92.8199,"MEAN_ANOMALY":267.3111,"EPHEMERIS_TYPE":0,"CLASSIFICATION_TYPE":"U","NORAD_CAT_ID":44059,"ELEMENT_SET_NO":999,"REV_AT_EPOCH":34041,"BSTAR":8.455695e-6,"MEAN_MOTION_DOT":1.6e-7,"MEAN_MOTION_DDOT":0},{"OBJECT_NAME":"ONEWEB-0007","OBJECT_ID":"2019-010D","EPOCH":"2026-03-23T05:48:41.389344","MEAN_MOTION":13.15547483,"ECCENTRICITY":0.00018606,"INCLINATION":87.8927,"RA_OF_ASC_NODE":276.3807,"ARG_OF_PERICENTER":100.8281,"MEAN_ANOMALY":259.3059,"EPHEMERIS_TYPE":0,"CLASSIFICATION_TYPE":"U","NORAD_CAT_ID":44060,"ELEMENT_SET_NO":999,"REV_AT_EPOCH":34007,"BSTAR":-0.00020562859,"MEAN_MOTION_DOT":-6.5e-7,"MEAN_MOTION_DDOT":0},{"OBJECT_NAME":"ONEWEB-0006","OBJECT_ID":"2019-010E","EPOCH":"2026-03-23T05:54:23.999904","MEAN_MOTION":13.15548132,"ECCENTRICITY":0.00018973,"INCLINATION":87.8937,"RA_OF_ASC_NODE":276.3353,"ARG_OF_PERICENTER":94.0228,"MEAN_ANOMALY":266.1119,"EPHEMERIS_TYPE":0,"CLASSIFICATION_TYPE":"U","NORAD_CAT_ID":44061,"ELEMENT_SET_NO":999,"REV_AT_EPOCH":34012,"BSTAR":-0.00020506097,"MEAN_MOTION_DOT":-6.4e-7,"MEAN_MOTION_DDOT":0},{"OBJECT_NAME":"ONEWEB-0011","OBJECT_ID":"2019-010F","EPOCH":"2026-03-22T12:43:03.200160","MEAN_MOTION":13.15548089,"ECCENTRICITY":0.000182,"INCLINATION":87.8937,"RA_OF_ASC_NODE":276.4868,"ARG_OF_PERICENTER":86.4552,"MEAN_ANOMALY":273.6786,"EPHEMERIS_TYPE":0,"CLASSIFICATION_TYPE":"U","NORAD_CAT_ID":44062,"ELEMENT_SET_NO":999,"REV_AT_EPOCH":34002,"BSTAR":0.00035272618,"MEAN_MOTION_DOT":1.46e-6,"MEAN_MOTION_DDOT":0},{"OBJECT_NAME":"ONEWEB-0013","OBJECT_ID":"2020-008A","EPOCH":"2026-03-23T04:58:54.569856","MEAN_MOTION":13.09445722,"ECCENTRICITY":0.00011992,"INCLINATION":87.8447,"RA_OF_ASC_NODE":70.1744,"ARG_OF_PERICENTER":115.3951,"MEAN_ANOMALY":244.73,"EPHEMERIS_TYPE":0,"CLASSIFICATION_TYPE":"U","NORAD_CAT_ID":45131,"ELEMENT_SET_NO":999,"REV_AT_EPOCH":29481,"BSTAR":-0.00086012443,"MEAN_MOTION_DOT":-2.84e-6,"MEAN_MOTION_DDOT":0},{"OBJECT_NAME":"ONEWEB-0017","OBJECT_ID":"2020-008B","EPOCH":"2026-03-22T22:40:31.793088","MEAN_MOTION":13.10372595,"ECCENTRICITY":0.0002123,"INCLINATION":87.8795,"RA_OF_ASC_NODE":53.4351,"ARG_OF_PERICENTER":83.2091,"MEAN_ANOMALY":276.9278,"EPHEMERIS_TYPE":0,"CLASSIFICATION_TYPE":"U","NORAD_CAT_ID":45132,"ELEMENT_SET_NO":999,"REV_AT_EPOCH":29665,"BSTAR":-0.0019363611,"MEAN_MOTION_DOT":-6.63e-6,"MEAN_MOTION_DDOT":0},{"OBJECT_NAME":"ONEWEB-0020","OBJECT_ID":"2020-008C","EPOCH":"2026-03-23T03:27:24.296544","MEAN_MOTION":13.10371116,"ECCENTRICITY":0.00018438,"INCLINATION":87.8803,"RA_OF_ASC_NODE":53.387,"ARG_OF_PERICENTER":83.5245,"MEAN_ANOMALY":276.6092,"EPHEMERIS_TYPE":0,"CLASSIFICATION_TYPE":"U","NORAD_CAT_ID":45133,"ELEMENT_SET_NO":999,"REV_AT_EPOCH":29707,"BSTAR":0.0016737765,"MEAN_MOTION_DOT":5.97e-6,"MEAN_MOTION_DDOT":0},{"OBJECT_NAME":"ONEWEB-0021","OBJECT_ID":"2020-008D","EPOCH":"2026-03-22T20:29:04.065792","MEAN_MOTION":13.10370442,"ECCENTRICITY":0.00018825,"INCLINATION":87.8791,"RA_OF_ASC_NODE":53.4686,"ARG_OF_PERICENTER":86.4578,"MEAN_ANOMALY":273.6764,"EPHEMERIS_TYPE":0,"CLASSIFICATION_TYPE":"U","NORAD_CAT_ID":45134,"ELEMENT_SET_NO":999,"REV_AT_EPOCH":29734,"BSTAR":-0.00082915949,"MEAN_MOTION_DOT":-2.77e-6,"MEAN_MOTION_DDOT":0},{"OBJECT_NAME":"ONEWEB-0023","OBJECT_ID":"2020-008F","EPOCH":"2026-03-23T04:04:24.347136","MEAN_MOTION":13.10370601,"ECCENTRICITY":0.00017225,"INCLINATION":87.8794,"RA_OF_ASC_NODE":53.3846,"ARG_OF_PERICENTER":85.5686,"MEAN_ANOMALY":274.5638,"EPHEMERIS_TYPE":0,"CLASSIFICATION_TYPE":"U","NORAD_CAT_ID":45136,"ELEMENT_SET_NO":999,"REV_AT_EPOCH":29681,"BSTAR":-0.0017060463,"MEAN_MOTION_DOT":-5.83e-6,"MEAN_MOTION_DDOT":0},{"OBJECT_NAME":"ONEWEB-0024","OBJECT_ID":"2020-008G","EPOCH":"2026-03-23T03:25:00.594336","MEAN_MOTION":13.10371277,"ECCENTRICITY":0.00019077,"INCLINATION":87.8807,"RA_OF_ASC_NODE":53.3771,"ARG_OF_PERICENTER":84.3528,"MEAN_ANOMALY":275.7816,"EPHEMERIS_TYPE":0,"CLASSIFICATION_TYPE":"U","NORAD_CAT_ID":45137,"ELEMENT_SET_NO":999,"REV_AT_EPOCH":29697,"BSTAR":0.0015455569,"MEAN_MOTION_DOT":5.52e-6,"MEAN_MOTION_DDOT":0},{"OBJECT_NAME":"ONEWEB-0025","OBJECT_ID":"2020-008H","EPOCH":"2026-03-23T05:18:32.042016","MEAN_MOTION":13.10874565,"ECCENTRICITY":0.00016813,"INCLINATION":87.8802,"RA_OF_ASC_NODE":53.3502,"ARG_OF_PERICENTER":92.7444,"MEAN_ANOMALY":267.3876,"EPHEMERIS_TYPE":0,"CLASSIFICATION_TYPE":"U","NORAD_CAT_ID":45138,"ELEMENT_SET_NO":999,"REV_AT_EPOCH":29731,"BSTAR":0.0011424929,"MEAN_MOTION_DOT":4.14e-6,"MEAN_MOTION_DDOT":0},{"OBJECT_NAME":"ONEWEB-0026","OBJECT_ID":"2020-008J","EPOCH":"2026-03-23T04:07:51.180096","MEAN_MOTION":13.11416491,"ECCENTRICITY":0.00020208,"INCLINATION":87.8893,"RA_OF_ASC_NODE":38.163,"ARG_OF_PERICENTER":78.1327,"MEAN_ANOMALY":282.0028,"EPHEMERIS_TYPE":0,"CLASSIFICATION_TYPE":"U","NORAD_CAT_ID":45139,"ELEMENT_SET_NO":999,"REV_AT_EPOCH":29983,"BSTAR":0.0016772128,"MEAN_MOTION_DOT":6.07e-6,"MEAN_MOTION_DDOT":0},{"OBJECT_NAME":"ONEWEB-0028","OBJECT_ID":"2020-008K","EPOCH":"2026-03-23T03:05:34.056960","MEAN_MOTION":13.11415563,"ECCENTRICITY":0.00013435,"INCLINATION":87.8883,"RA_OF_ASC_NODE":38.1789,"ARG_OF_PERICENTER":93.6743,"MEAN_ANOMALY":266.4539,"EPHEMERIS_TYPE":0,"CLASSIFICATION_TYPE":"U","NORAD_CAT_ID":45140,"ELEMENT_SET_NO":999,"REV_AT_EPOCH":29734,"BSTAR":-0.0014270538,"MEAN_MOTION_DOT":-4.93e-6,"MEAN_MOTION_DDOT":0},{"OBJECT_NAME":"ONEWEB-0032","OBJECT_ID":"2020-008L","EPOCH":"2026-03-23T04:12:47.081952","MEAN_MOTION":13.10374706,"ECCENTRICITY":0.00014476,"INCLINATION":87.8794,"RA_OF_ASC_NODE":53.3905,"ARG_OF_PERICENTER":91.0837,"MEAN_ANOMALY":269.0456,"EPHEMERIS_TYPE":0,"CLASSIFICATION_TYPE":"U","NORAD_CAT_ID":45141,"ELEMENT_SET_NO":999,"REV_AT_EPOCH":29703,"BSTAR":-0.0017575243,"MEAN_MOTION_DOT":-6.01e-6,"MEAN_MOTION_DDOT":0}]
