ONEWEB-0012             
1 44057U 19010A   26082.14862392  .00000096  00000+0  21647-3 0  9991
2 44057  87.9018 245.8899 0001520 110.5912 249.5382 13.16594888340246
ONEWEB-0010             
1 44058U 19010B   26082.17395813 -.00000098  00000+0 -29083-3 0  9990
2 44058  87.9021 245.8802 0002107  97.0097 263.1274 13.16593942340297
ONEWEB-0008             
1 44059U 19010C   26082.19929079  .00000016  00000+0  84557-5 0  9997
2 44059  87.9017 245.8723 0001571  92.8199 267.3111 13.16593967340412
ONEWEB-0007             
1 44060U 19010D   26082.24214571 -.00000065  00000+0 -20563-3 0  9990
2 44060  87.8927 276.3807 0001860 100.8281 259.3059 13.15547483340073
ONEWEB-0006             
1 44061U 19010E   26082.24611111 -.00000064  00000+0 -20506-3 0  9998
2 44061  87.8937 276.3353 0001897  94.0228 266.1119 13.15548132340127
ONEWEB-0011             
1 44062U 19010F   26081.52989815  .00000146  00000+0  35273-3 0  9994
2 44062  87.8937 276.4868 0001820  86.4552 273.6786 13.15548089340024
ONEWEB-0013             
1 45131U 20008A   26082.20757604 -.00000284  00000+0 -86012-3 0  9998
2 45131  87.8447  70.1744 0001199 115.3951 244.7300 13.09445722294813
ONEWEB-0017             
1 45132U 20008B   26081.94481242 -.00000663  00000+0 -19364-2 0  9997
2 45132  87.8795  53.4351 0002123  83.2091 276.9278 13.10372595296658
ONEWEB-0020             
1 45133U 20008C   26082.14403121  .00000597  00000+0  16738-2 0  9997
2 45133  87.8803  53.3870 0001843  83.5245 276.6092 13.10371116297072
ONEWEB-0021             
1 45134U 20008D   26081.85351928 -.00000277  00000+0 -82916-3 0  9991
2 45134  87.8791  53.4686 0001882  86.4578 273.6764 13.10370442297343
ONEWEB-0023             
1 45136U 20008F   26082.16972624 -.00000583  00000+0 -17060-2 0  9997
2 45136  87.8794  53.3846 0001722  85.5686 274.5638 13.10370601296816
ONEWEB-0024             
1 45137U 20008G   26082.14236799  .00000552  00000+0  15456-2 0  9993
2 45137  87.8807  53.3771 0001907  84.3528 275.7816 13.10371277296974
ONEWEB-0025             
1 45138U 20008H   26082.22120419  .00000414  00000+0  11425-2 0  9993
2 45138  87.8802  53.3502 0001681  92.7444 267.3876 13.10874565297311
ONEWEB-0026             
1 45139U 20008J   26082.17212014  .00000607  00000+0  16772-2 0  9995
2 45139  87.8893  38.1630 0002020  78.1327 282.0028 13.11416491299834
ONEWEB-0028             
1 45140U 20008K   26082.12886640 -.00000493  00000+0 -14271-2 0  9991
2 45140  87.8883  38.1789 0001343  93.6743 266.4539 13.11415563297347
ONEWEB-0032             
1 45141U 20008L   26082.17554493 -.00000601  00000+0 -17575-2 0  9996
2 45141  87.8794  53.3905 0001447  91.0837 269.0456 13.10374706297034
